{
  "type": "FeatureCollection",
  "features": [
    {
      "type": "Feature",
      "properties": {
        "postal_codes": "637382",
        "name": ""
      },
      "geometry": {
        "coordinates": [
          [
            [
              103.62449911899489,
              1.2966262237670634
            ],
            [
              103.62361591422064,
              1.2969573407288806
            ],
            [
              103.6240575166077,
              1.2979547792173065
            ],
            [
              103.6230598223271,
              1.298285896006206
            ],
            [
              103.62243013003473,
              1.2966384873585213
            ],
            [
              103.62249964152142,
              1.2964954121153767
            ],
            [
              103.62405342769762,
              1.2958904081402238
            ],
            [
              103.62421698413789,
              1.295968077577811
            ],
            [
              103.62434782928904,
              1.2962828431678446
            ],
            [
              103.62449911899489,
              1.2966262237670634
            ]
          ]
        ],
        "type": "Polygon"
      }
    },
    {
      "type": "Feature",
      "properties": {
        "sb_id": "",
        "postal_codes": "639401,636927,636928",
        "name": ""
      },
      "geometry": {
        "coordinates": [
          [
            [
              103.62648591897715,
              1.323747121992497
            ],
            [
              103.6247114045974,
              1.3248263861217566
            ],
            [
              103.62312581190008,
              1.3223710595467395
            ],
            [
              103.62524443363031,
              1.3216088285501542
            ],
            [
              103.62570999063581,
              1.3214739203850172
            ],
            [
              103.6260743395959,
              1.3220742616645396
            ],
            [
              103.62560878259052,
              1.3222698784544349
            ],
            [
              103.62648591897715,
              1.323747121992497
            ]
          ]
        ],
        "type": "Polygon"
      }
    },
    {
      "type": "Feature",
      "geometry": {
        "type": "Polygon",
        "coordinates": [
          [
            [
              103.732822,
              1.3177317
            ],
            [
              103.7326494,
              1.3169542
            ],
            [
              103.7352916,
              1.3163679
            ],
            [
              103.7354642,
              1.3171454
            ],
            [
              103.732822,
              1.3177317
            ]
          ]
        ]
      },
      "properties": {
        "osm_id": "882664481",
        "url": "https://www.openstreetmap.org/api/0.6/way/882664481",
        "addr:city": "Singapore",
        "addr:country": "SG",
        "addr:housenumber": "18A",
        "addr:postcode": "609150",
        "addr:street": "Penjuru Road",
        "landuse": "industrial"
      }
    },
    {
      "type": "Feature",
      "geometry": {
        "type": "Polygon",
        "coordinates": [
          [
            [
              103.6938626,
              1.3092667
            ],
            [
              103.6956315,
              1.310035
            ],
            [
              103.6967902,
              1.3105257
            ],
            [
              103.6975506,
              1.3094839
            ],
            [
              103.6974809,
              1.3092922
            ],
            [
              103.6941348,
              1.3078107
            ],
            [
              103.6936815,
              1.307513
            ],
            [
              103.6933006,
              1.3071296
            ],
            [
              103.6923109,
              1.307867
            ],
            [
              103.6914526,
              1.3085561
            ],
            [
              103.6932416,
              1.3109856
            ],
            [
              103.6938626,
              1.3092667
            ]
          ]
        ]
      },
      "properties": {
        "sb_id": "",
        "postal_codes": "628193",
        "osm_id": "891176488",
        "name": "",
        "url": "https://www.openstreetmap.org/api/0.6/way/891176488",
        "landuse": "industrial"
      }
    },
    {
      "type": "Feature",
      "geometry": {
        "type": "Polygon",
        "coordinates": [
          [
            [
              103.6909352,
              1.3137538
            ],
            [
              103.6932058,
              1.3110004
            ],
            [
              103.6922496,
              1.3096887
            ],
            [
              103.6894718,
              1.312443
            ],
            [
              103.6909352,
              1.3137538
            ]
          ]
        ]
      },
      "properties": {
        "osm_id": "697868724",
        "name": "",
        "url": "https://www.openstreetmap.org/api/0.6/way/697868724",
        "landuse": "industrial"
      }
    },
    {
      "type": "Feature",
      "geometry": {
        "type": "Polygon",
        "coordinates": [
          [
            [
              103.6337864,
              1.2918938
            ],
            [
              103.6336749,
              1.2906324
            ],
            [
              103.6354301,
              1.2904522
            ],
            [
              103.6355331,
              1.2905466
            ],
            [
              103.6356511,
              1.2916316
            ],
            [
              103.6354344,
              1.2917608
            ],
            [
              103.6347649,
              1.2918208
            ],
            [
              103.6341684,
              1.2918766
            ],
            [
              103.6337864,
              1.2918938
            ]
          ]
        ]
      },
      "properties": {
        "osm_id": "1455701321",
        "url": "https://www.openstreetmap.org/api/0.6/way/1455701321",
        "landuse": "industrial"
      }
    },
    {
      "type": "Feature",
      "properties": {
        "sb_id": "",
        "postal_codes": "637468",
        "name": ""
      },
      "geometry": {
        "coordinates": [
          [
            [
              103.6326181286588,
              1.291307726602696
            ],
            [
              103.63276110581637,
              1.2930393522633636
            ],
            [
              103.63171533004083,
              1.2930679404130814
            ],
            [
              103.6316377138699,
              1.292986259985497
            ],
            [
              103.63150699189868,
              1.2914424993974478
            ],
            [
              103.6326181286588,
              1.291307726602696
            ]
          ]
        ],
        "type": "Polygon"
      }
    },
    {
      "type": "Feature",
      "properties": {
        "postal_codes": "637359,639930",
        "name": ""
      },
      "geometry": {
        "coordinates": [
          [
            [
              103.63263855916023,
              1.2912954773369876
            ],
            [
              103.63150699709206,
              1.2914057459874044
            ],
            [
              103.63135584981296,
              1.289269800528956
            ],
            [
              103.63138444524446,
              1.2891595317849749
            ],
            [
              103.6314865717842,
              1.2891146074808262
            ],
            [
              103.63246698657315,
              1.2890410949812008
            ],
            [
              103.63263855916023,
              1.2912954773369876
            ]
          ]
        ],
        "type": "Polygon"
      }
    },
    {
      "type": "Feature",
      "properties": {
        "sb_id": "",
        "postal_codes": "638039",
        "name": ""
      },
      "geometry": {
        "coordinates": [
          [
            [
              103.6280307893042,
              1.308964069732454
            ],
            [
              103.62916921763758,
              1.3085483794391024
            ],
            [
              103.62969111677324,
              1.309861387162826
            ],
            [
              103.62852114508502,
              1.3102770772370462
            ],
            [
              103.6280307893042,
              1.308964069732454
            ]
          ]
        ],
        "type": "Polygon"
      }
    },
    {
      "type": "Feature",
      "properties": {
        "sb_id": "",
        "postal_codes": "637066",
        "name": ""
      },
      "geometry": {
        "coordinates": [
          [
            [
              103.64783286689345,
              1.3091383028506414
            ],
            [
              103.64931574147693,
              1.3077085255902432
            ],
            [
              103.64960243056254,
              1.308014906500702
            ],
            [
              103.64957606834821,
              1.308140094388122
            ],
            [
              103.64817557568693,
              1.3094875109974566
            ],
            [
              103.64783286689345,
              1.3091383028506414
            ]
          ]
        ],
        "type": "Polygon"
      }
    },
    {
      "type": "Feature",
      "properties": {
        "sb_id": "",
        "postal_codes": "628380",
        "name": ""
      },
      "geometry": {
        "coordinates": [
          [
            [
              103.65972625266312,
              1.3046815033220014
            ],
            [
              103.66143524132389,
              1.3030397407189582
            ],
            [
              103.66216448404197,
              1.303891231286599
            ],
            [
              103.66223685164022,
              1.3039747107392685
            ],
            [
              103.66226468533154,
              1.3041194084485852
            ],
            [
              103.66062249753179,
              1.3056665603688202
            ],
            [
              103.65972625266312,
              1.3046815033220014
            ]
          ]
        ],
        "type": "Polygon"
      }
    },
    {
      "type": "Feature",
      "properties": {
        "sb_id": "",
        "postal_codes": "627545",
        "name": ""
      },
      "geometry": {
        "coordinates": [
          [
            [
              103.6961620441823,
              1.314177486475657
            ],
            [
              103.69601888879549,
              1.3137782632979338
            ],
            [
              103.69649356192019,
              1.3123320203076503
            ],
            [
              103.69738263221478,
              1.3104112275443924
            ],
            [
              103.69786483983194,
              1.309816158114259
            ],
            [
              103.69795525376026,
              1.3104187600672788
            ],
            [
              103.69797032274897,
              1.3117444838539427
            ],
            [
              103.69763880501108,
              1.3126107234493105
            ],
            [
              103.6971792008751,
              1.3132660523348534
            ],
            [
              103.69644835495598,
              1.3141699539640541
            ],
            [
              103.6961620441823,
              1.314177486475657
            ]
          ]
        ],
        "type": "Polygon"
      }
    },
    {
      "type": "Feature",
      "properties": {
        "postal_codes": "627531,619500,627563",
        "name": "",
        "sb_id": ""
      },
      "geometry": {
        "coordinates": [
          [
            [
              103.69974143762897,
              1.3120055573452163
            ],
            [
              103.70052156084665,
              1.3106610096503744
            ],
            [
              103.70182176620881,
              1.3112134522952061
            ],
            [
              103.70118791609445,
              1.312720482714326
            ],
            [
              103.69974143762897,
              1.3120055573452163
            ]
          ]
        ],
        "type": "Polygon"
      }
    },
    {
      "type": "Feature",
      "properties": {
        "sb_id": "",
        "postal_codes": "619476",
        "name": ""
      },
      "geometry": {
        "coordinates": [
          [
            [
              103.70302691795274,
              1.3138663969454143
            ],
            [
              103.70276309461713,
              1.3148061588275226
            ],
            [
              103.70171001827595,
              1.3141456658431991
            ],
            [
              103.70168119723968,
              1.3139328895425422
            ],
            [
              103.70204256869926,
              1.3139062925037308
            ],
            [
              103.70240615716227,
              1.3138220685463438
            ],
            [
              103.70277861363707,
              1.3138242849659036
            ],
            [
              103.70302691795274,
              1.3138663969454143
            ]
          ]
        ],
        "type": "Polygon"
      }
    },
    {
      "type": "Feature",
      "properties": {
        "sb_id": "",
        "postal_codes": "619491",
        "name": ""
      },
      "geometry": {
        "coordinates": [
          [
            [
              103.71754121592102,
              1.3156697970817817
            ],
            [
              103.71797593453863,
              1.3175768646994328
            ],
            [
              103.71532869280935,
              1.317382266029739
            ],
            [
              103.71543250620999,
              1.3154816848901731
            ],
            [
              103.71754121592102,
              1.3156697970817817
            ]
          ]
        ],
        "type": "Polygon"
      }
    },
    {
      "type": "Feature",
      "properties": {
        "sb_id": "",
        "postal_codes": "609194",
        "name": ""
      },
      "geometry": {
        "coordinates": [
          [
            [
              103.73196532701525,
              1.3093902805776167
            ],
            [
              103.7315465316691,
              1.3075383995539767
            ],
            [
              103.7315465316691,
              1.3074055471666384
            ],
            [
              103.7331129873391,
              1.3070472482701945
            ],
            [
              103.73324990120409,
              1.3071237390503256
            ],
            [
              103.73367272342779,
              1.308963542897061
            ],
            [
              103.73360829337577,
              1.3090561369289446
            ],
            [
              103.73196532701525,
              1.3093902805776167
            ]
          ]
        ],
        "type": "Polygon"
      }
    },
    {
      "type": "Feature",
      "properties": {
        "sb_id": "",
        "postal_codes": "627470",
        "name": ""
      },
      "geometry": {
        "coordinates": [
          [
            [
              103.67245219170678,
              1.2780269916552243
            ],
            [
              103.67321871773777,
              1.2768236053975386
            ],
            [
              103.67502125161019,
              1.27815271854449
            ],
            [
              103.67415890982414,
              1.2792124163733547
            ],
            [
              103.67245219170678,
              1.2780269916552243
            ]
          ]
        ],
        "type": "Polygon"
      }
    },
    {
      "type": "Feature",
      "properties": {
        "sb_id": "TCD2",
        "postal_codes": "619331",
        "name": ""
      },
      "geometry": {
        "coordinates": [
          [
            [
              103.72130589034089,
              1.3081781622234416
            ],
            [
              103.71986864255229,
              1.3064825588893854
            ],
            [
              103.72046017862073,
              1.305965099333747
            ],
            [
              103.72186969815272,
              1.3076560828450852
            ],
            [
              103.72130589034089,
              1.3081781622234416
            ]
          ]
        ],
        "type": "Polygon"
      }
    }
  ]
}
